{
  "links" : {
    "next" : "https://api.nasa.gov/neo/rest/v1/feed?start_date=2004-01-09&end_date=2004-01-09&detailed=true&api_key=t0TVs3DtDT2H8Oy2Zy8m2eVrNsAVKAexjcZXUckd",
    "prev" : "https://api.nasa.gov/neo/rest/v1/feed?start_date=2004-01-07&end_date=2004-01-07&detailed=true&api_key=t0TVs3DtDT2H8Oy2Zy8m2eVrNsAVKAexjcZXUckd",
    "self" : "https://api.nasa.gov/neo/rest/v1/feed?start_date=2004-01-08&end_date=2004-01-08&detailed=true&api_key=t0TVs3DtDT2H8Oy2Zy8m2eVrNsAVKAexjcZXUckd"
  },
  "element_count" : 2,
  "near_earth_objects" : {
    "2004-01-08" : [ {
      "links" : {
        "self" : "https://api.nasa.gov/neo/rest/v1/neo/3170210?api_key=t0TVs3DtDT2H8Oy2Zy8m2eVrNsAVKAexjcZXUckd"
      },
      "neo_reference_id" : "3170210",
      "name" : "(2003 YJ136)",
      "nasa_jpl_url" : "http://ssd.jpl.nasa.gov/sbdb.cgi?sstr=3170210",
      "absolute_magnitude_h" : 20.4,
      "estimated_diameter" : {
        "kilometers" : {
          "estimated_diameter_min" : 0.2210828104,
          "estimated_diameter_max" : 0.4943561926
        },
        "meters" : {
          "estimated_diameter_min" : 221.0828103591,
          "estimated_diameter_max" : 494.3561926196
        },
        "miles" : {
          "estimated_diameter_min" : 0.137374447,
          "estimated_diameter_max" : 0.3071786018
        },
        "feet" : {
          "estimated_diameter_min" : 725.3373275385,
          "estimated_diameter_max" : 1621.9035709942
        }
      },
      "is_potentially_hazardous_asteroid" : false,
      "close_approach_data" : [ {
        "close_approach_date" : "2004-01-08",
        "epoch_date_close_approach" : 1073548800000,
        "relative_velocity" : {
          "kilometers_per_second" : "14.2781310908",
          "kilometers_per_hour" : "51401.2719270157",
          "miles_per_hour" : "31938.7514370949"
        },
        "miss_distance" : {
          "astronomical" : "0.3423613437",
          "lunar" : "133.1785583496",
          "kilometers" : "51216528",
          "miles" : "31824474"
        },
        "orbiting_body" : "Earth"
      } ],
      "orbital_data" : {
        "orbit_id" : "9",
        "orbit_determination_date" : "2017-04-06 09:13:20",
        "orbit_uncertainty" : "7",
        "minimum_orbit_intersection" : ".318555",
        "jupiter_tisserand_invariant" : "3.480",
        "epoch_osculation" : "2458000.5",
        "eccentricity" : ".3943010428517663",
        "semi_major_axis" : "2.141578213706596",
        "inclination" : "26.98385903384744",
        "ascending_node_longitude" : "288.1875568731867",
        "orbital_period" : "1144.720174962453",
        "perihelion_distance" : "1.297151690693462",
        "perihelion_argument" : "170.6260583656796",
        "aphelion_distance" : "2.98600473671973",
        "perihelion_time" : "2457575.037279100397",
        "mean_anomaly" : "133.8026382988147",
        "mean_motion" : ".3144873374943428",
        "equinox" : "J2000"
      }
    }, {
      "links" : {
        "self" : "https://api.nasa.gov/neo/rest/v1/neo/2162004?api_key=t0TVs3DtDT2H8Oy2Zy8m2eVrNsAVKAexjcZXUckd"
      },
      "neo_reference_id" : "2162004",
      "name" : "162004 (1991 VE)",
      "nasa_jpl_url" : "http://ssd.jpl.nasa.gov/sbdb.cgi?sstr=2162004",
      "absolute_magnitude_h" : 18.2,
      "estimated_diameter" : {
        "kilometers" : {
          "estimated_diameter_min" : 0.6089126221,
          "estimated_diameter_max" : 1.3615700154
        },
        "meters" : {
          "estimated_diameter_min" : 608.9126221057,
          "estimated_diameter_max" : 1361.5700153859
        },
        "miles" : {
          "estimated_diameter_min" : 0.3783606449,
          "estimated_diameter_max" : 0.846040122
        },
        "feet" : {
          "estimated_diameter_min" : 1997.7448871092,
          "estimated_diameter_max" : 4467.0933692788
        }
      },
      "is_potentially_hazardous_asteroid" : false,
      "close_approach_data" : [ {
        "close_approach_date" : "2004-01-08",
        "epoch_date_close_approach" : 1073548800000,
        "relative_velocity" : {
          "kilometers_per_second" : "15.1994583141",
          "kilometers_per_hour" : "54718.04993062",
          "miles_per_hour" : "33999.6683027233"
        },
        "miss_distance" : {
          "astronomical" : "0.3453636996",
          "lunar" : "134.3464813232",
          "kilometers" : "51665676",
          "miles" : "32103562"
        },
        "orbiting_body" : "Earth"
      } ],
      "orbital_data" : {
        "orbit_id" : "165",
        "orbit_determination_date" : "2017-04-06 09:26:41",
        "orbit_uncertainty" : "0",
        "minimum_orbit_intersection" : ".0578928",
        "jupiter_tisserand_invariant" : "6.455",
        "epoch_osculation" : "2455233.5",
        "eccentricity" : ".6645118766417184",
        "semi_major_axis" : ".8907955120131161",
        "inclination" : "7.220327144353877",
        "ascending_node_longitude" : "61.96858336510567",
        "orbital_period" : "307.0898465041557",
        "perihelion_distance" : ".2988513146212599",
        "perihelion_argument" : "193.5473642284032",
        "aphelion_distance" : "1.482739709404972",
        "perihelion_time" : "2455249.135945964447",
        "mean_anomaly" : "341.6700532066444",
        "mean_motion" : "1.172295352966443",
        "equinox" : "J2000"
      }
    } ]
  }
}